; Prusa MK4S acoustic speed sweep
; generated by: ./gen_noise_sweep.py --phase-stepping on --out gcode/mk4s_sweep_phase_on.gcode
;
; segments        : 40
; est. runtime    : 7:44 (mm:ss; junction deviation ignored, runs a touch short)
; measured time   : 5:19 across all windows
; acceleration    : 4000 mm/s^2 (M201+M204; 1250 is only the startup value, HWLIMIT allows 7000)
; junction dev.   : 0.01 mm
; measure / pause : 5 / 2 s
; glide           : 30 s per axis
; feature check   : M862.6 Input shaper
; phase stepping  : ON (M970)
; per-axis ceiling: 300 mm/s, firmware HWLIMIT_NORMAL_MAX_FEEDRATE
; Z parked at     : 50 mm
; X/Y motors      : 200-step, 16 microsteps, stock current X300 Y370 mA
; full-step rate  : 6.25 Hz per mm/s (electrical 1.5625 Hz per mm/s)
;
; WHICH HARMONIC IS LOUDEST TELLS YOU WHAT IS WRONG.  Per segment the CSV
; gives elec_hz; one electrical cycle is four full steps, so:
;   4x elec_hz  = the full-step rate: cogging.  Always present, always normal.
;   2x elec_hz  = phase amplitude imbalance - one coil pulling weaker than
;                 the other.  Bad crimp, partly seated connector, damaged
;                 winding, or a driver channel down.
;   1x elec_hz  = DC offset in one phase.
; Normal singing peaks at 4x.  A peak at 2x louder than the one at 4x is a
; fault signature, and no amount of current or damping will fix it.
;
; Cold run: heaters stay off so the hotend fan never starts and the meter
; only hears the motion system.  Each axis runs end to end at every speed,
; so nothing repositions between segments.  One beep = the next window
; starts in 2 s; three beeps = end of file.
;
; ON-SCREEN SPEED: every move is commanded F6000 (100 mm/s) and M220 carries
; the real speed, so the printer's speed field reads mm/s directly - 240%
; means 240 mm/s.  Sanity check on the first run: the segments must audibly
; differ.  If they all sound the same the firmware is ignoring M220 on travel
; moves - regenerate with --speed-display off and read the CSV instead.
;
; cold noise sweep - no heaters, no extrusion, nothing gets printed
; the same print checks PrusaSlicer 2.9.6 emits for this printer. Without the
; feature check the printer warns the file is not sliced for input shaping and
; runs it down a legacy compatibility path - different limits, different noise.
M862.3 P "MK4S"
M862.5 P2
M862.6 P"Input shaper"
M104 S0
M140 S0
M107
G21
G90
M220 S100

; --- home and park (noisy, not measured) ---
M17
G28
G1 X125.000 Y105.000 Z50.000 F1800  ; park

; --- phase stepping ON ---
; set explicitly, after homing. On an MK4 the enable flag defaults to FALSE
; (defaults.hpp: true only for XL/CoreOne/iX) and is declared ram_only, so it
; reverts to OFF at every power cycle. PrusaSlicer never sends M970, so a print
; runs without phase stepping unless something enables it after boot.
; M972 saves the correction table but does NOT enable - separate states.
M970 X1 Y1
G4 P1000  ; let the drivers switch over

; --- motion limits, held constant for the whole run ---
; planner starts at M201 X1250 Y1250; raising to 4000 (HWLIMIT_NORMAL_MAX_ACCELERATION allows 7000)
; PrusaSlicer emits M203 X300 Y300 for this printer too - the 400 in the
; firmware header is a startup value the HWLIMIT never lets you reach.
; NOTE: a PrusaSlicer print ENDS with M593 X T2 F0 / M593 Y T2 F0, which turns
; input shaping off and leaves it off until reboot. Power-cycle the printer
; before measuring, or this file may run with a different shaper state.
; M203 is set to the hard limit, not the 400 startup value: HWLIMIT clamps X/Y to 300 mm/s and asking for more is a no-op
M201 X4000 Y4000 Z200 E2500  ; maximum accelerations, mm/s^2
M203 X300 Y300 Z40 E100  ; maximum feedrates, mm/s
M204 P4000 R2500 T4000  ; acceleration, mm/s^2
M205 X8.00 Y8.00 Z2.00 E10.00  ; jerk limits, mm/s
M205 J0.010  ; junction deviation, mm
M205 S0 T0  ; minimum extruding and travel feed rate, mm/s

; --- BASELINE (start): motors energised, nothing moving ---
M400
G4 P2000  ; silence
M117 baseline start
M300 S1200 P60
G4 P10000  ; hold still

; -- X glide: 30 -> 300 -> 30 mm/s over 30 s, 3.32 octaves each way (0.22 oct/s) --
;    full-step 188 -> 1875 Hz, micro-move every 40 ms (0.6% speed per step)
G1 X5.000 F6000  ; to X end
M400
G4 P2000  ; silence before the glide
M117 X glide 30 mm/s
M300 S1200 P60
G1 X6.200 F1800
G1 X7.407 F1811
G1 X8.622 F1822
G1 X9.845 F1833
G1 X11.074 F1845
G1 X12.312 F1856
G1 X13.557 F1868
G1 X14.810 F1879
G1 X16.070 F1891
G1 X17.338 F1902
G1 X18.614 F1914
G1 X19.898 F1926
G1 X21.190 F1938
G1 X22.489 F1950
G1 X23.797 F1962
G1 X25.113 F1974
G1 X26.437 F1986
G1 X27.769 F1998
G1 X29.109 F2010
G1 X30.458 F2023
G1 X31.814 F2035
G1 X33.180 F2048
G1 X34.553 F2060
G1 X35.935 F2073
G1 X37.326 F2086
;    t=1.0s  35 mm/s  217 Hz
M117 X glide 35 mm/s
G1 X38.725 F2099
G1 X40.132 F2112
G1 X41.549 F2125
G1 X42.974 F2138
G1 X44.408 F2151
G1 X45.851 F2164
G1 X47.302 F2177
G1 X48.763 F2191
G1 X50.232 F2204
G1 X51.711 F2218
G1 X53.199 F2232
G1 X54.695 F2245
G1 X56.201 F2259
G1 X57.717 F2273
G1 X59.241 F2287
G1 X60.776 F2301
G1 X62.319 F2315
G1 X63.872 F2330
G1 X65.435 F2344
G1 X67.007 F2358
G1 X68.589 F2373
G1 X70.181 F2387
G1 X71.782 F2402
G1 X73.393 F2417
G1 X75.015 F2432
;    t=2.0s  41 mm/s  253 Hz
M117 X glide 41 mm/s
G1 X76.646 F2447
G1 X78.287 F2462
G1 X79.938 F2477
G1 X81.600 F2492
G1 X83.272 F2508
G1 X84.954 F2523
G1 X86.646 F2539
G1 X88.349 F2554
G1 X90.063 F2570
G1 X91.786 F2586
G1 X93.521 F2602
G1 X95.266 F2618
G1 X97.022 F2634
G1 X98.789 F2650
G1 X100.567 F2666
G1 X102.355 F2683
G1 X104.155 F2699
G1 X105.965 F2716
G1 X107.787 F2733
G1 X109.620 F2750
G1 X111.465 F2767
G1 X113.321 F2784
G1 X115.188 F2801
G1 X117.066 F2818
G1 X118.957 F2835
;    t=3.0s  47 mm/s  295 Hz
M117 X glide 47 mm/s
G1 X120.858 F2853
G1 X122.772 F2870
G1 X124.697 F2888
G1 X126.635 F2906
G1 X128.584 F2924
G1 X130.545 F2942
G1 X132.518 F2960
G1 X134.504 F2978
G1 X136.501 F2996
G1 X138.511 F3015
G1 X140.533 F3033
G1 X142.568 F3052
G1 X144.616 F3071
G1 X146.675 F3090
G1 X148.748 F3109
G1 X150.833 F3128
G1 X152.932 F3147
G1 X155.043 F3167
G1 X157.167 F3186
G1 X159.304 F3206
G1 X161.454 F3226
G1 X163.618 F3245
G1 X165.795 F3265
G1 X167.985 F3286
G1 X170.189 F3306
;    t=4.0s  55 mm/s  344 Hz
M117 X glide 55 mm/s
G1 X172.407 F3326
G1 X174.638 F3347
G1 X176.883 F3367
G1 X179.141 F3388
G1 X181.414 F3409
G1 X183.700 F3430
G1 X186.001 F3451
G1 X188.316 F3472
G1 X190.645 F3494
G1 X192.988 F3515
G1 X195.346 F3537
G1 X197.718 F3559
G1 X200.105 F3580
G1 X202.507 F3603
G1 X204.924 F3625
G1 X207.355 F3647
G1 X209.801 F3669
G1 X212.263 F3692
G1 X214.739 F3715
G1 X217.231 F3738
G1 X219.738 F3761
G1 X222.261 F3784
G1 X224.799 F3807
G1 X227.353 F3831
G1 X229.922 F3854
;    t=5.0s  64 mm/s  401 Hz
M117 X glide 64 mm/s
G1 X232.507 F3878
G1 X235.109 F3902
G1 X237.726 F3926
G1 X240.359 F3950
G1 X243.009 F3974
G1 X245.000 F3999
G1 X242.322 F4017
G1 X239.627 F4042
G1 X236.916 F4067
G1 X234.188 F4092
G1 X231.443 F4117
G1 X228.681 F4143
G1 X225.903 F4168
G1 X223.107 F4194
G1 X220.294 F4220
G1 X217.464 F4246
G1 X214.616 F4272
G1 X211.751 F4298
G1 X208.868 F4324
G1 X205.967 F4351
G1 X203.048 F4378
G1 X200.112 F4405
G1 X197.157 F4432
G1 X194.184 F4459
G1 X191.193 F4487
G1 X188.183 F4514
;    t=6.0s  75 mm/s  470 Hz
M117 X glide 75 mm/s
G1 X185.155 F4542
G1 X182.109 F4570
G1 X179.043 F4598
G1 X175.959 F4627
G1 X172.855 F4655
G1 X169.733 F4684
G1 X166.591 F4713
G1 X163.430 F4742
G1 X160.249 F4771
G1 X157.049 F4800
G1 X153.829 F4830
G1 X150.589 F4860
G1 X147.330 F4889
G1 X144.050 F4920
G1 X140.750 F4950
G1 X137.430 F4980
G1 X134.089 F5011
G1 X130.728 F5042
G1 X127.346 F5073
G1 X123.943 F5104
G1 X120.519 F5136
G1 X117.074 F5167
G1 X113.608 F5199
G1 X110.121 F5231
G1 X106.612 F5263
;    t=7.0s  88 mm/s  548 Hz
M117 X glide 88 mm/s
G1 X103.081 F5296
G1 X99.529 F5328
G1 X95.955 F5361
G1 X92.359 F5394
G1 X88.740 F5427
G1 X85.100 F5461
G1 X81.437 F5495
G1 X77.751 F5528
G1 X74.043 F5562
G1 X70.312 F5597
G1 X66.558 F5631
G1 X62.781 F5666
G1 X58.980 F5701
G1 X55.156 F5736
G1 X51.309 F5771
G1 X47.438 F5807
G1 X43.543 F5842
G1 X39.624 F5878
G1 X35.680 F5915
G1 X31.713 F5951
G1 X27.721 F5988
G1 X23.705 F6025
G1 X19.664 F6062
G1 X15.598 F6099
G1 X11.507 F6137
;    t=8.0s  102 mm/s  639 Hz
M117 X glide 102 mm/s
G1 X7.390 F6174
G1 X5.000 F6212
G1 X9.156 F6235
G1 X13.338 F6273
G1 X17.546 F6312
G1 X21.780 F6350
G1 X26.039 F6390
G1 X30.325 F6429
G1 X34.638 F6468
G1 X38.976 F6508
G1 X43.342 F6548
G1 X47.735 F6589
G1 X52.154 F6629
G1 X56.601 F6670
G1 X61.075 F6711
G1 X65.577 F6753
G1 X70.106 F6794
G1 X74.664 F6836
G1 X79.249 F6878
G1 X83.863 F6920
G1 X88.505 F6963
G1 X93.175 F7006
G1 X97.875 F7049
G1 X102.603 F7093
G1 X107.361 F7136
;    t=9.0s  119 mm/s  743 Hz
M117 X glide 119 mm/s
G1 X112.147 F7180
G1 X116.964 F7224
G1 X121.810 F7269
G1 X126.686 F7314
G1 X131.591 F7359
G1 X136.527 F7404
G1 X141.494 F7450
G1 X146.491 F7496
G1 X151.519 F7542
G1 X156.577 F7588
G1 X161.667 F7635
G1 X166.789 F7682
G1 X171.941 F7729
G1 X177.126 F7777
G1 X182.342 F7825
G1 X187.591 F7873
G1 X192.872 F7921
G1 X198.186 F7970
G1 X203.532 F8019
G1 X208.911 F8069
G1 X214.323 F8118
G1 X219.769 F8168
G1 X225.248 F8219
G1 X230.761 F8269
G1 X236.308 F8320
;    t=10.0s  139 mm/s  867 Hz
M117 X glide 139 mm/s
G1 X241.889 F8371
G1 X245.000 F8423
G1 X239.365 F8452
G1 X233.696 F8504
G1 X227.992 F8556
G1 X222.253 F8609
G1 X216.478 F8662
G1 X210.668 F8715
G1 X204.822 F8769
G1 X198.940 F8823
G1 X193.022 F8877
G1 X187.067 F8932
G1 X181.076 F8987
G1 X175.048 F9042
G1 X168.982 F9098
G1 X162.880 F9154
G1 X156.739 F9210
G1 X150.561 F9267
G1 X144.345 F9324
G1 X138.091 F9382
G1 X131.798 F9439
G1 X125.466 F9498
G1 X119.095 F9556
G1 X112.685 F9615
G1 X106.236 F9674
G1 X99.747 F9734
;    t=11.0s  162 mm/s  1014 Hz
M117 X glide 162 mm/s
G1 X93.217 F9794
G1 X86.648 F9854
G1 X80.038 F9915
G1 X73.388 F9976
G1 X66.696 F10037
G1 X59.964 F10099
G1 X53.189 F10161
G1 X46.374 F10224
G1 X39.516 F10287
G1 X32.616 F10350
G1 X25.673 F10414
G1 X18.688 F10478
G1 X11.659 F10543
G1 X5.000 F10608
G1 X12.113 F10669
G1 X19.269 F10735
G1 X26.470 F10801
G1 X33.715 F10867
G1 X41.004 F10934
G1 X48.339 F11002
G1 X55.718 F11069
G1 X63.143 F11138
G1 X70.614 F11206
G1 X78.131 F11275
G1 X85.694 F11345
;    t=12.0s  189 mm/s  1182 Hz
M117 X glide 189 mm/s
G1 X93.304 F11415
G1 X100.960 F11485
G1 X108.664 F11556
G1 X116.415 F11627
G1 X124.214 F11698
G1 X132.061 F11770
G1 X139.956 F11843
G1 X147.900 F11916
G1 X155.893 F11989
G1 X163.935 F12063
G1 X172.027 F12137
G1 X180.168 F12212
G1 X188.360 F12287
G1 X196.602 F12363
G1 X204.895 F12439
G1 X213.238 F12516
G1 X221.634 F12593
G1 X230.081 F12670
G1 X238.580 F12748
G1 X245.000 F12827
G1 X236.409 F12886
G1 X227.765 F12966
G1 X219.068 F13045
G1 X210.318 F13126
G1 X201.513 F13207
;    t=13.0s  220 mm/s  1376 Hz
M117 X glide 220 mm/s
G1 X192.655 F13288
G1 X183.741 F13370
G1 X174.773 F13452
G1 X165.750 F13535
G1 X156.671 F13618
G1 X147.536 F13702
G1 X138.345 F13787
G1 X129.097 F13872
G1 X119.792 F13957
G1 X110.430 F14043
G1 X101.011 F14130
G1 X91.533 F14217
G1 X81.997 F14304
G1 X72.402 F14392
G1 X62.748 F14481
G1 X53.035 F14570
G1 X43.262 F14660
G1 X33.428 F14750
G1 X23.534 F14841
G1 X13.580 F14932
G1 X5.000 F15024
G1 X15.069 F15104
G1 X25.200 F15197
G1 X35.393 F15290
G1 X45.650 F15384
;    t=14.0s  256 mm/s  1603 Hz
M117 X glide 256 mm/s
G1 X55.969 F15479
G1 X66.352 F15574
G1 X76.799 F15670
G1 X87.310 F15767
G1 X97.886 F15864
G1 X108.527 F15962
G1 X119.234 F16060
G1 X130.006 F16159
G1 X140.845 F16258
G1 X151.751 F16359
G1 X162.724 F16459
G1 X173.764 F16561
G1 X184.873 F16663
G1 X196.050 F16765
G1 X207.295 F16869
G1 X218.610 F16972
G1 X229.995 F17077
G1 X241.450 F17182
G1 X245.000 F17288
G1 X233.453 F17321
G1 X221.835 F17427
G1 X210.145 F17535
G1 X198.383 F17643
G1 X186.549 F17751
G1 X174.641 F17861
G1 X162.661 F17971
;    t=15.0s  300 mm/s  1872 Hz
M117 X glide 300 mm/s
G1 X150.715 F17919
G1 X138.842 F17809
G1 X127.042 F17700
G1 X115.314 F17592
G1 X103.658 F17484
G1 X92.073 F17377
G1 X80.559 F17271
G1 X69.116 F17165
G1 X57.743 F17060
G1 X46.439 F16956
G1 X35.204 F16852
G1 X24.039 F16749
G1 X12.941 F16646
G1 X5.000 F16544
G1 X15.981 F16471
G1 X26.894 F16370
G1 X37.741 F16270
G1 X48.522 F16171
G1 X59.236 F16072
G1 X69.885 F15973
G1 X80.468 F15875
G1 X90.987 F15778
G1 X101.442 F15682
G1 X111.832 F15586
G1 X122.159 F15490
;    t=16.0s  258 mm/s  1614 Hz
M117 X glide 258 mm/s
G1 X132.423 F15395
G1 X142.623 F15301
G1 X152.762 F15208
G1 X162.838 F15114
G1 X172.853 F15022
G1 X182.806 F14930
G1 X192.698 F14839
G1 X202.530 F14748
G1 X212.302 F14657
G1 X222.014 F14568
G1 X231.666 F14479
G1 X241.259 F14390
G1 X245.000 F14302
G1 X235.488 F14267
G1 X226.035 F14180
G1 X216.639 F14093
G1 X207.301 F14007
G1 X198.021 F13921
G1 X188.797 F13836
G1 X179.629 F13751
G1 X170.517 F13667
G1 X161.462 F13584
G1 X152.462 F13500
G1 X143.516 F13418
G1 X134.626 F13336
G1 X125.790 F13254
;    t=17.0s  221 mm/s  1381 Hz
M117 X glide 221 mm/s
G1 X117.008 F13173
G1 X108.280 F13092
G1 X99.605 F13012
G1 X90.984 F12932
G1 X82.415 F12853
G1 X73.899 F12775
G1 X65.434 F12696
G1 X57.022 F12619
G1 X48.661 F12541
G1 X40.351 F12465
G1 X32.092 F12388
G1 X23.884 F12312
G1 X15.726 F12237
G1 X7.618 F12162
G1 X5.000 F12088
G1 X13.042 F12064
G1 X21.036 F11990
G1 X28.980 F11916
G1 X36.876 F11843
G1 X44.723 F11771
G1 X52.522 F11699
G1 X60.274 F11627
G1 X67.978 F11556
G1 X75.635 F11485
G1 X83.245 F11415
;    t=18.0s  190 mm/s  1189 Hz
M117 X glide 190 mm/s
G1 X90.808 F11345
G1 X98.326 F11276
G1 X105.797 F11207
G1 X113.222 F11138
G1 X120.602 F11070
G1 X127.937 F11002
G1 X135.227 F10935
G1 X142.472 F10868
G1 X149.673 F10801
G1 X156.830 F10735
G1 X163.943 F10670
G1 X171.012 F10604
G1 X178.039 F10539
G1 X185.022 F10475
G1 X191.962 F10411
G1 X198.860 F10347
G1 X205.716 F10284
G1 X212.530 F10221
G1 X219.302 F10158
G1 X226.033 F10096
G1 X232.722 F10034
G1 X239.370 F9973
G1 X245.000 F9912
G1 X238.427 F9860
G1 X231.894 F9800
;    t=19.0s  163 mm/s  1021 Hz
M117 X glide 163 mm/s
G1 X225.401 F9740
G1 X218.947 F9680
G1 X212.533 F9621
G1 X206.159 F9562
G1 X199.823 F9503
G1 X193.527 F9445
G1 X187.268 F9387
G1 X181.049 F9330
G1 X174.867 F9273
G1 X168.723 F9216
G1 X162.616 F9160
G1 X156.547 F9103
G1 X150.516 F9048
G1 X144.521 F8992
G1 X138.562 F8937
G1 X132.641 F8883
G1 X126.755 F8828
G1 X120.906 F8774
G1 X115.092 F8720
G1 X109.314 F8667
G1 X103.571 F8614
G1 X97.864 F8561
G1 X92.191 F8509
G1 X86.553 F8457
G1 X80.950 F8405
;    t=20.0s  140 mm/s  876 Hz
M117 X glide 140 mm/s
G1 X75.381 F8354
G1 X69.846 F8302
G1 X64.345 F8252
G1 X58.877 F8201
G1 X53.443 F8151
G1 X48.043 F8101
G1 X42.675 F8051
G1 X37.340 F8002
G1 X32.038 F7953
G1 X26.768 F7904
G1 X21.531 F7856
G1 X16.326 F7808
G1 X11.152 F7760
G1 X6.010 F7713
G1 X5.000 F7666
G1 X10.104 F7656
G1 X15.177 F7609
G1 X20.219 F7563
G1 X25.230 F7516
G1 X30.210 F7470
G1 X35.160 F7425
G1 X40.080 F7379
G1 X44.969 F7334
G1 X49.828 F7289
G1 X54.658 F7245
G1 X59.458 F7200
;    t=21.0s  120 mm/s  750 Hz
M117 X glide 120 mm/s
G1 X64.229 F7156
G1 X68.971 F7112
G1 X73.683 F7069
G1 X78.367 F7026
G1 X83.022 F6983
G1 X87.648 F6940
G1 X92.247 F6897
G1 X96.817 F6855
G1 X101.359 F6813
G1 X105.873 F6771
G1 X110.360 F6730
G1 X114.819 F6689
G1 X119.251 F6648
G1 X123.656 F6607
G1 X128.033 F6567
G1 X132.384 F6527
G1 X136.709 F6487
G1 X141.007 F6447
G1 X145.278 F6407
G1 X149.524 F6368
G1 X153.743 F6329
G1 X157.937 F6290
G1 X162.105 F6252
G1 X166.247 F6214
G1 X170.364 F6176
;    t=22.0s  103 mm/s  643 Hz
M117 X glide 103 mm/s
G1 X174.456 F6138
G1 X178.523 F6100
G1 X182.565 F6063
G1 X186.582 F6026
G1 X190.575 F5989
G1 X194.543 F5952
G1 X198.487 F5916
G1 X202.406 F5880
G1 X206.302 F5844
G1 X210.174 F5808
G1 X214.022 F5772
G1 X217.847 F5737
G1 X221.648 F5702
G1 X225.426 F5667
G1 X229.181 F5632
G1 X232.913 F5598
G1 X236.622 F5563
G1 X240.308 F5529
G1 X243.972 F5496
G1 X245.000 F5462
G1 X241.365 F5452
G1 X237.752 F5419
G1 X234.162 F5386
G1 X230.593 F5353
G1 X227.046 F5320
G1 X223.521 F5288
;    t=23.0s  88 mm/s  551 Hz
M117 X glide 88 mm/s
G1 X220.018 F5255
G1 X216.536 F5223
G1 X213.075 F5191
G1 X209.635 F5159
G1 X206.217 F5128
G1 X202.819 F5096
G1 X199.442 F5065
G1 X196.086 F5034
G1 X192.751 F5003
G1 X189.436 F4973
G1 X186.141 F4942
G1 X182.866 F4912
G1 X179.611 F4882
G1 X176.377 F4852
G1 X173.162 F4822
G1 X169.967 F4793
G1 X166.791 F4764
G1 X163.635 F4734
G1 X160.498 F4705
G1 X157.380 F4677
G1 X154.281 F4648
G1 X151.202 F4619
G1 X148.141 F4591
G1 X145.099 F4563
G1 X142.075 F4535
;    t=24.0s  76 mm/s  472 Hz
M117 X glide 76 mm/s
G1 X139.070 F4507
G1 X136.084 F4480
G1 X133.116 F4452
G1 X130.166 F4425
G1 X127.233 F4398
G1 X124.319 F4371
G1 X121.423 F4344
G1 X118.545 F4318
G1 X115.684 F4291
G1 X112.840 F4265
G1 X110.014 F4239
G1 X107.206 F4213
G1 X104.414 F4187
G1 X101.640 F4162
G1 X98.882 F4136
G1 X96.142 F4111
G1 X93.418 F4086
G1 X90.711 F4061
G1 X88.020 F4036
G1 X85.346 F4011
G1 X82.689 F3987
G1 X80.047 F3962
G1 X77.422 F3938
G1 X74.813 F3914
G1 X72.220 F3890
;    t=25.0s  65 mm/s  405 Hz
M117 X glide 65 mm/s
G1 X69.642 F3866
G1 X67.081 F3842
G1 X64.535 F3819
G1 X62.005 F3795
G1 X59.490 F3772
G1 X56.990 F3749
G1 X54.506 F3726
G1 X52.037 F3703
G1 X49.584 F3681
G1 X47.145 F3658
G1 X44.721 F3636
G1 X42.312 F3613
G1 X39.918 F3591
G1 X37.538 F3569
G1 X35.173 F3548
G1 X32.823 F3526
G1 X30.486 F3504
G1 X28.165 F3483
G1 X25.857 F3461
G1 X23.563 F3440
G1 X21.284 F3419
G1 X19.018 F3398
G1 X16.767 F3377
G1 X14.529 F3357
G1 X12.305 F3336
;    t=26.0s  56 mm/s  348 Hz
M117 X glide 56 mm/s
G1 X10.094 F3316
G1 X7.897 F3296
G1 X5.714 F3275
G1 X5.000 F3255
G1 X7.166 F3249
G1 X9.318 F3229
G1 X11.458 F3209
G1 X13.584 F3189
G1 X15.697 F3170
G1 X17.798 F3151
G1 X19.885 F3131
G1 X21.960 F3112
G1 X24.022 F3093
G1 X26.071 F3074
G1 X28.108 F3055
G1 X30.133 F3037
G1 X32.145 F3018
G1 X34.144 F3000
G1 X36.132 F2981
G1 X38.107 F2963
G1 X40.070 F2945
G1 X42.021 F2927
G1 X43.961 F2909
G1 X45.888 F2891
G1 X47.803 F2873
G1 X49.707 F2856
;    t=27.0s  48 mm/s  297 Hz
M117 X glide 48 mm/s
G1 X51.599 F2838
G1 X53.480 F2821
G1 X55.349 F2804
G1 X57.207 F2786
G1 X59.053 F2769
G1 X60.888 F2752
G1 X62.712 F2736
G1 X64.524 F2719
G1 X66.326 F2702
G1 X68.116 F2686
G1 X69.896 F2669
G1 X71.664 F2653
G1 X73.422 F2637
G1 X75.169 F2620
G1 X76.905 F2604
G1 X78.631 F2589
G1 X80.346 F2573
G1 X82.051 F2557
G1 X83.745 F2541
G1 X85.429 F2526
G1 X87.102 F2510
G1 X88.765 F2495
G1 X90.419 F2480
G1 X92.061 F2464
G1 X93.694 F2449
;    t=28.0s  41 mm/s  255 Hz
M117 X glide 41 mm/s
G1 X95.317 F2434
G1 X96.930 F2419
G1 X98.533 F2405
G1 X100.127 F2390
G1 X101.710 F2375
G1 X103.284 F2361
G1 X104.848 F2346
G1 X106.403 F2332
G1 X107.948 F2318
G1 X109.484 F2303
G1 X111.010 F2289
G1 X112.527 F2275
G1 X114.034 F2261
G1 X115.533 F2248
G1 X117.022 F2234
G1 X118.502 F2220
G1 X119.973 F2207
G1 X121.435 F2193
G1 X122.888 F2180
G1 X124.332 F2166
G1 X125.768 F2153
G1 X127.194 F2140
G1 X128.612 F2127
G1 X130.021 F2114
G1 X131.422 F2101
;    t=29.0s  35 mm/s  219 Hz
M117 X glide 35 mm/s
G1 X132.814 F2088
G1 X134.197 F2075
G1 X135.572 F2062
G1 X136.939 F2050
G1 X138.297 F2037
G1 X139.647 F2025
G1 X140.988 F2012
G1 X142.322 F2000
G1 X143.647 F1988
G1 X144.964 F1976
G1 X146.273 F1964
G1 X147.574 F1952
G1 X148.867 F1940
G1 X150.153 F1928
G1 X151.430 F1916
G1 X152.699 F1904
G1 X153.961 F1893
G1 X155.215 F1881
G1 X156.461 F1869
G1 X157.700 F1858
G1 X158.931 F1847
G1 X160.155 F1835
G1 X161.371 F1824
G1 X162.579 F1813
G1 X162.780 F1802
;    t=30.0s  30 mm/s  188 Hz
M117 X glide 30 mm/s

; -- Y glide: 30 -> 300 -> 30 mm/s over 30 s, 3.32 octaves each way (0.22 oct/s) --
;    full-step 188 -> 1875 Hz, micro-move every 40 ms (0.6% speed per step)
G1 X125.000 Y5.000 F6000  ; to Y end
M400
G4 P2000  ; silence before the glide
M117 Y glide 30 mm/s
M300 S1200 P60
G1 Y6.200 F1800
G1 Y7.407 F1811
G1 Y8.622 F1822
G1 Y9.845 F1833
G1 Y11.074 F1845
G1 Y12.312 F1856
G1 Y13.557 F1868
G1 Y14.810 F1879
G1 Y16.070 F1891
G1 Y17.338 F1902
G1 Y18.614 F1914
G1 Y19.898 F1926
G1 Y21.190 F1938
G1 Y22.489 F1950
G1 Y23.797 F1962
G1 Y25.113 F1974
G1 Y26.437 F1986
G1 Y27.769 F1998
G1 Y29.109 F2010
G1 Y30.458 F2023
G1 Y31.814 F2035
G1 Y33.180 F2048
G1 Y34.553 F2060
G1 Y35.935 F2073
G1 Y37.326 F2086
;    t=1.0s  35 mm/s  217 Hz
M117 Y glide 35 mm/s
G1 Y38.725 F2099
G1 Y40.132 F2112
G1 Y41.549 F2125
G1 Y42.974 F2138
G1 Y44.408 F2151
G1 Y45.851 F2164
G1 Y47.302 F2177
G1 Y48.763 F2191
G1 Y50.232 F2204
G1 Y51.711 F2218
G1 Y53.199 F2232
G1 Y54.695 F2245
G1 Y56.201 F2259
G1 Y57.717 F2273
G1 Y59.241 F2287
G1 Y60.776 F2301
G1 Y62.319 F2315
G1 Y63.872 F2330
G1 Y65.435 F2344
G1 Y67.007 F2358
G1 Y68.589 F2373
G1 Y70.181 F2387
G1 Y71.782 F2402
G1 Y73.393 F2417
G1 Y75.015 F2432
;    t=2.0s  41 mm/s  253 Hz
M117 Y glide 41 mm/s
G1 Y76.646 F2447
G1 Y78.287 F2462
G1 Y79.938 F2477
G1 Y81.600 F2492
G1 Y83.272 F2508
G1 Y84.954 F2523
G1 Y86.646 F2539
G1 Y88.349 F2554
G1 Y90.063 F2570
G1 Y91.786 F2586
G1 Y93.521 F2602
G1 Y95.266 F2618
G1 Y97.022 F2634
G1 Y98.789 F2650
G1 Y100.567 F2666
G1 Y102.355 F2683
G1 Y104.155 F2699
G1 Y105.965 F2716
G1 Y107.787 F2733
G1 Y109.620 F2750
G1 Y111.465 F2767
G1 Y113.321 F2784
G1 Y115.188 F2801
G1 Y117.066 F2818
G1 Y118.957 F2835
;    t=3.0s  47 mm/s  295 Hz
M117 Y glide 47 mm/s
G1 Y120.858 F2853
G1 Y122.772 F2870
G1 Y124.697 F2888
G1 Y126.635 F2906
G1 Y128.584 F2924
G1 Y130.545 F2942
G1 Y132.518 F2960
G1 Y134.504 F2978
G1 Y136.501 F2996
G1 Y138.511 F3015
G1 Y140.533 F3033
G1 Y142.568 F3052
G1 Y144.616 F3071
G1 Y146.675 F3090
G1 Y148.748 F3109
G1 Y150.833 F3128
G1 Y152.932 F3147
G1 Y155.043 F3167
G1 Y157.167 F3186
G1 Y159.304 F3206
G1 Y161.454 F3226
G1 Y163.618 F3245
G1 Y165.795 F3265
G1 Y167.985 F3286
G1 Y170.189 F3306
;    t=4.0s  55 mm/s  344 Hz
M117 Y glide 55 mm/s
G1 Y172.407 F3326
G1 Y174.638 F3347
G1 Y176.883 F3367
G1 Y179.141 F3388
G1 Y181.414 F3409
G1 Y183.700 F3430
G1 Y186.001 F3451
G1 Y188.316 F3472
G1 Y190.645 F3494
G1 Y192.988 F3515
G1 Y195.346 F3537
G1 Y197.718 F3559
G1 Y200.105 F3580
G1 Y202.507 F3603
G1 Y204.924 F3625
G1 Y205.000 F3647
G1 Y202.568 F3648
G1 Y200.121 F3670
G1 Y197.660 F3693
G1 Y195.182 F3716
G1 Y192.690 F3738
G1 Y190.183 F3761
G1 Y187.659 F3785
G1 Y185.121 F3808
G1 Y182.567 F3831
G1 Y179.997 F3855
;    t=5.0s  64 mm/s  402 Hz
M117 Y glide 64 mm/s
G1 Y177.411 F3879
G1 Y174.809 F3903
G1 Y172.191 F3927
G1 Y169.557 F3951
G1 Y166.907 F3975
G1 Y164.241 F4000
G1 Y161.558 F4024
G1 Y158.859 F4049
G1 Y156.143 F4074
G1 Y153.410 F4099
G1 Y150.660 F4124
G1 Y147.894 F4150
G1 Y145.110 F4175
G1 Y142.309 F4201
G1 Y139.492 F4227
G1 Y136.656 F4253
G1 Y133.803 F4279
G1 Y130.933 F4305
G1 Y128.045 F4332
G1 Y125.139 F4359
G1 Y122.216 F4386
G1 Y119.274 F4413
G1 Y116.314 F4440
G1 Y113.336 F4467
G1 Y110.340 F4495
;    t=6.0s  75 mm/s  468 Hz
M117 Y glide 75 mm/s
G1 Y107.325 F4522
G1 Y104.291 F4550
G1 Y101.239 F4578
G1 Y98.168 F4606
G1 Y95.079 F4635
G1 Y91.970 F4663
G1 Y88.842 F4692
G1 Y85.695 F4721
G1 Y82.528 F4750
G1 Y79.342 F4779
G1 Y76.136 F4809
G1 Y72.910 F4838
G1 Y69.665 F4868
G1 Y66.400 F4898
G1 Y63.114 F4928
G1 Y59.809 F4959
G1 Y56.482 F4989
G1 Y53.136 F5020
G1 Y49.769 F5051
G1 Y46.381 F5082
G1 Y42.972 F5113
G1 Y39.542 F5145
G1 Y36.091 F5176
G1 Y32.619 F5208
G1 Y29.126 F5240
;    t=7.0s  87 mm/s  546 Hz
M117 Y glide 87 mm/s
G1 Y25.611 F5273
G1 Y22.074 F5305
G1 Y18.515 F5338
G1 Y14.935 F5371
G1 Y11.333 F5404
G1 Y7.708 F5437
G1 Y5.000 F5470
G1 Y8.664 F5495
G1 Y12.350 F5529
G1 Y16.059 F5563
G1 Y19.790 F5598
G1 Y23.545 F5632
G1 Y27.323 F5667
G1 Y31.124 F5702
G1 Y34.949 F5737
G1 Y38.797 F5772
G1 Y42.669 F5808
G1 Y46.564 F5843
G1 Y50.484 F5879
G1 Y54.428 F5916
G1 Y58.396 F5952
G1 Y62.388 F5989
G1 Y66.405 F6026
G1 Y70.447 F6063
G1 Y74.514 F6100
G1 Y78.606 F6138
;    t=8.0s  102 mm/s  639 Hz
M117 Y glide 102 mm/s
G1 Y82.723 F6175
G1 Y86.865 F6214
G1 Y91.033 F6252
G1 Y95.226 F6290
G1 Y99.446 F6329
G1 Y103.691 F6368
G1 Y107.962 F6407
G1 Y112.260 F6447
G1 Y116.585 F6486
G1 Y120.935 F6526
G1 Y125.313 F6567
G1 Y129.718 F6607
G1 Y134.150 F6648
G1 Y138.609 F6689
G1 Y143.095 F6730
G1 Y147.609 F6771
G1 Y152.151 F6813
G1 Y156.721 F6855
G1 Y161.319 F6897
G1 Y165.946 F6940
G1 Y170.601 F6982
G1 Y175.284 F7025
G1 Y179.997 F7069
G1 Y184.738 F7112
G1 Y189.509 F7156
;    t=9.0s  119 mm/s  745 Hz
M117 Y glide 119 mm/s
G1 Y194.309 F7200
G1 Y199.139 F7244
G1 Y203.998 F7289
G1 Y205.000 F7334
G1 Y200.105 F7343
G1 Y195.179 F7388
G1 Y190.223 F7434
G1 Y185.237 F7480
G1 Y180.219 F7526
G1 Y175.171 F7572
G1 Y170.092 F7619
G1 Y164.982 F7666
G1 Y159.840 F7713
G1 Y154.666 F7760
G1 Y149.461 F7808
G1 Y144.223 F7856
G1 Y138.954 F7905
G1 Y133.651 F7953
G1 Y128.316 F8002
G1 Y122.949 F8052
G1 Y117.548 F8101
G1 Y112.114 F8151
G1 Y106.646 F8201
G1 Y101.145 F8252
G1 Y95.610 F8303
G1 Y90.041 F8354
;    t=10.0s  139 mm/s  870 Hz
M117 Y glide 139 mm/s
G1 Y84.437 F8405
G1 Y78.799 F8457
G1 Y73.127 F8509
G1 Y67.419 F8561
G1 Y61.676 F8614
G1 Y55.898 F8667
G1 Y50.084 F8721
G1 Y44.234 F8774
G1 Y38.349 F8828
G1 Y32.427 F8883
G1 Y26.469 F8938
G1 Y20.474 F8993
G1 Y14.442 F9048
G1 Y8.373 F9104
G1 Y5.000 F9160
G1 Y11.127 F9191
G1 Y17.292 F9247
G1 Y23.495 F9304
G1 Y29.736 F9362
G1 Y36.016 F9419
G1 Y42.334 F9477
G1 Y48.691 F9536
G1 Y55.088 F9595
G1 Y61.523 F9654
G1 Y67.999 F9713
;    t=11.0s  162 mm/s  1012 Hz
M117 Y glide 162 mm/s
G1 Y74.514 F9773
G1 Y81.069 F9833
G1 Y87.665 F9894
G1 Y94.302 F9955
G1 Y100.979 F10016
G1 Y107.697 F10078
G1 Y114.457 F10140
G1 Y121.258 F10202
G1 Y128.102 F10265
G1 Y134.987 F10328
G1 Y141.915 F10392
G1 Y148.885 F10456
G1 Y155.899 F10520
G1 Y162.955 F10585
G1 Y170.056 F10650
G1 Y177.199 F10716
G1 Y184.387 F10782
G1 Y191.619 F10848
G1 Y198.896 F10915
G1 Y205.000 F10982
G1 Y197.641 F11039
G1 Y190.237 F11107
G1 Y182.787 F11175
G1 Y175.291 F11244
G1 Y167.749 F11313
;    t=12.0s  189 mm/s  1178 Hz
M117 Y glide 189 mm/s
G1 Y160.160 F11383
G1 Y152.525 F11453
G1 Y144.843 F11523
G1 Y137.113 F11594
G1 Y129.336 F11666
G1 Y121.511 F11738
G1 Y113.638 F11810
G1 Y105.716 F11883
G1 Y97.745 F11956
G1 Y89.726 F12029
G1 Y81.657 F12104
G1 Y73.538 F12178
G1 Y65.369 F12253
G1 Y57.150 F12329
G1 Y48.881 F12404
G1 Y40.560 F12481
G1 Y32.188 F12558
G1 Y23.765 F12635
G1 Y15.290 F12713
G1 Y6.762 F12791
G1 Y5.000 F12870
G1 Y13.591 F12886
G1 Y22.235 F12966
G1 Y30.932 F13045
G1 Y39.682 F13126
G1 Y48.487 F13207
;    t=13.0s  220 mm/s  1376 Hz
M117 Y glide 220 mm/s
G1 Y57.345 F13288
G1 Y66.258 F13370
G1 Y75.227 F13452
G1 Y84.250 F13535
G1 Y93.329 F13618
G1 Y102.464 F13702
G1 Y111.655 F13787
G1 Y120.903 F13872
G1 Y130.207 F13957
G1 Y139.569 F14043
G1 Y148.989 F14129
G1 Y158.467 F14217
G1 Y168.003 F14304
G1 Y177.598 F14392
G1 Y187.251 F14481
G1 Y196.965 F14570
G1 Y205.000 F14660
G1 Y195.177 F14734
G1 Y185.294 F14825
G1 Y175.350 F14916
G1 Y165.345 F15008
G1 Y155.278 F15100
G1 Y145.149 F15193
G1 Y134.958 F15287
G1 Y124.704 F15381
;    t=14.0s  256 mm/s  1602 Hz
M117 Y glide 256 mm/s
G1 Y114.387 F15476
G1 Y104.006 F15571
G1 Y93.561 F15667
G1 Y83.052 F15763
G1 Y72.479 F15861
G1 Y61.840 F15958
G1 Y51.135 F16057
G1 Y40.365 F16155
G1 Y29.528 F16255
G1 Y18.625 F16355
G1 Y7.655 F16456
G1 Y5.000 F16557
G1 Y16.054 F16582
G1 Y27.177 F16684
G1 Y38.368 F16787
G1 Y49.628 F16890
G1 Y60.957 F16994
G1 Y72.356 F17099
G1 Y83.825 F17204
G1 Y95.365 F17310
G1 Y106.976 F17416
G1 Y118.659 F17524
G1 Y130.413 F17632
G1 Y142.240 F17740
G1 Y154.140 F17850
G1 Y166.113 F17959
;    t=15.0s  299 mm/s  1871 Hz
M117 Y glide 299 mm/s
G1 Y178.066 F17930
G1 Y189.947 F17820
G1 Y201.754 F17711
G1 Y205.000 F17603
G1 Y193.285 F17573
G1 Y181.641 F17465
G1 Y170.069 F17359
G1 Y158.567 F17252
G1 Y147.136 F17147
G1 Y135.775 F17042
G1 Y124.483 F16937
G1 Y113.261 F16834
G1 Y102.107 F16731
G1 Y91.021 F16628
G1 Y80.004 F16526
G1 Y69.054 F16425
G1 Y58.170 F16325
G1 Y47.354 F16225
G1 Y36.603 F16126
G1 Y25.919 F16027
G1 Y15.300 F15929
G1 Y5.000 F15831
G1 Y15.491 F15737
G1 Y25.918 F15640
G1 Y36.281 F15545
G1 Y46.581 F15449
;    t=16.0s  257 mm/s  1609 Hz
M117 Y glide 257 mm/s
G1 Y56.817 F15355
G1 Y66.991 F15261
G1 Y77.103 F15167
G1 Y87.152 F15075
G1 Y97.140 F14982
G1 Y107.068 F14891
G1 Y116.934 F14799
G1 Y126.740 F14709
G1 Y136.486 F14619
G1 Y146.172 F14529
G1 Y155.799 F14440
G1 Y165.367 F14352
G1 Y174.876 F14264
G1 Y184.327 F14177
G1 Y193.721 F14090
G1 Y203.056 F14004
G1 Y205.000 F13918
G1 Y195.733 F13900
G1 Y186.523 F13815
G1 Y177.370 F13730
G1 Y168.272 F13646
G1 Y159.230 F13563
G1 Y150.243 F13480
G1 Y141.312 F13397
G1 Y132.435 F13315
;    t=17.0s  222 mm/s  1387 Hz
M117 Y glide 222 mm/s
G1 Y123.612 F13234
G1 Y114.844 F13153
G1 Y106.129 F13072
G1 Y97.467 F12992
G1 Y88.859 F12913
G1 Y80.303 F12834
G1 Y71.800 F12755
G1 Y63.348 F12677
G1 Y54.949 F12599
G1 Y46.600 F12522
G1 Y38.303 F12446
G1 Y30.057 F12370
G1 Y21.861 F12294
G1 Y13.715 F12219
G1 Y5.619 F12144
G1 Y5.000 F12069
G1 Y13.042 F12064
G1 Y21.036 F11990
G1 Y28.980 F11916
G1 Y36.876 F11844
G1 Y44.723 F11771
G1 Y52.522 F11699
G1 Y60.274 F11627
G1 Y67.978 F11556
G1 Y75.635 F11485
G1 Y83.245 F11415
;    t=18.0s  190 mm/s  1189 Hz
M117 Y glide 190 mm/s
G1 Y90.809 F11345
G1 Y98.326 F11276
G1 Y105.797 F11207
G1 Y113.222 F11138
G1 Y120.602 F11070
G1 Y127.937 F11002
G1 Y135.227 F10935
G1 Y142.472 F10868
G1 Y149.673 F10801
G1 Y156.830 F10735
G1 Y163.943 F10670
G1 Y171.013 F10604
G1 Y178.039 F10539
G1 Y185.022 F10475
G1 Y191.963 F10411
G1 Y198.861 F10347
G1 Y205.000 F10284
G1 Y198.182 F10227
G1 Y191.405 F10165
G1 Y184.670 F10102
G1 Y177.977 F10041
G1 Y171.324 F9979
G1 Y164.712 F9918
G1 Y158.140 F9857
G1 Y151.609 F9797
;    t=19.0s  163 mm/s  1021 Hz
M117 Y glide 163 mm/s
G1 Y145.118 F9737
G1 Y138.666 F9677
G1 Y132.254 F9618
G1 Y125.881 F9559
G1 Y119.547 F9501
G1 Y113.252 F9443
G1 Y106.996 F9385
G1 Y100.777 F9327
G1 Y94.597 F9270
G1 Y88.455 F9214
G1 Y82.350 F9157
G1 Y76.283 F9101
G1 Y70.252 F9045
G1 Y64.259 F8990
G1 Y58.302 F8935
G1 Y52.382 F8880
G1 Y46.498 F8826
G1 Y40.650 F8772
G1 Y34.838 F8718
G1 Y29.062 F8665
G1 Y23.321 F8612
G1 Y17.615 F8559
G1 Y11.943 F8507
G1 Y6.307 F8455
G1 Y5.000 F8403
G1 Y10.594 F8391
;    t=20.0s  140 mm/s  874 Hz
M117 Y glide 140 mm/s
G1 Y16.154 F8339
G1 Y21.679 F8288
G1 Y27.171 F8238
G1 Y32.629 F8187
G1 Y38.054 F8137
G1 Y43.445 F8087
G1 Y48.804 F8038
G1 Y54.130 F7989
G1 Y59.423 F7940
G1 Y64.683 F7891
G1 Y69.912 F7843
G1 Y75.108 F7795
G1 Y80.273 F7747
G1 Y85.406 F7700
G1 Y90.508 F7653
G1 Y95.578 F7606
G1 Y100.618 F7559
G1 Y105.626 F7513
G1 Y110.604 F7467
G1 Y115.552 F7421
G1 Y120.469 F7376
G1 Y125.356 F7331
G1 Y130.213 F7286
G1 Y135.040 F7241
G1 Y139.838 F7197
;    t=21.0s  120 mm/s  750 Hz
M117 Y glide 120 mm/s
G1 Y144.607 F7153
G1 Y149.346 F7109
G1 Y154.056 F7065
G1 Y158.738 F7022
G1 Y163.390 F6979
G1 Y168.015 F6936
G1 Y172.611 F6894
G1 Y177.179 F6852
G1 Y181.719 F6810
G1 Y186.231 F6768
G1 Y190.715 F6727
G1 Y195.172 F6686
G1 Y199.602 F6645
G1 Y204.005 F6604
G1 Y205.000 F6564
G1 Y200.630 F6554
G1 Y196.288 F6514
G1 Y191.971 F6474
G1 Y187.682 F6435
G1 Y183.418 F6395
G1 Y179.181 F6356
G1 Y174.969 F6317
G1 Y170.783 F6279
G1 Y166.623 F6240
G1 Y162.488 F6202
G1 Y158.379 F6164
;    t=22.0s  103 mm/s  642 Hz
M117 Y glide 103 mm/s
G1 Y154.295 F6126
G1 Y150.236 F6089
G1 Y146.201 F6052
G1 Y142.192 F6014
G1 Y138.207 F5978
G1 Y134.246 F5941
G1 Y130.309 F5905
G1 Y126.397 F5869
G1 Y122.509 F5833
G1 Y118.644 F5797
G1 Y114.803 F5761
G1 Y110.986 F5726
G1 Y107.192 F5691
G1 Y103.421 F5656
G1 Y99.673 F5622
G1 Y95.948 F5587
G1 Y92.246 F5553
G1 Y88.567 F5519
G1 Y84.910 F5485
G1 Y81.276 F5452
G1 Y77.663 F5418
G1 Y74.073 F5385
G1 Y70.505 F5352
G1 Y66.959 F5319
G1 Y63.434 F5287
;    t=23.0s  88 mm/s  551 Hz
M117 Y glide 88 mm/s
G1 Y59.931 F5254
G1 Y56.450 F5222
G1 Y52.989 F5190
G1 Y49.550 F5159
G1 Y46.132 F5127
G1 Y42.735 F5096
G1 Y39.359 F5064
G1 Y36.003 F5033
G1 Y32.668 F5003
G1 Y29.354 F4972
G1 Y26.059 F4942
G1 Y22.785 F4911
G1 Y19.531 F4881
G1 Y16.297 F4851
G1 Y13.082 F4822
G1 Y9.887 F4792
G1 Y6.712 F4763
G1 Y5.000 F4734
G1 Y8.145 F4718
G1 Y11.271 F4689
G1 Y14.378 F4660
G1 Y17.466 F4632
G1 Y20.535 F4603
G1 Y23.585 F4575
G1 Y26.617 F4547
;    t=24.0s  76 mm/s  474 Hz
M117 Y glide 76 mm/s
G1 Y29.630 F4519
G1 Y32.624 F4492
G1 Y35.600 F4464
G1 Y38.558 F4437
G1 Y41.498 F4410
G1 Y44.420 F4383
G1 Y47.324 F4356
G1 Y50.210 F4329
G1 Y53.079 F4303
G1 Y55.930 F4276
G1 Y58.763 F4250
G1 Y61.579 F4224
G1 Y64.378 F4198
G1 Y67.160 F4173
G1 Y69.925 F4147
G1 Y72.673 F4122
G1 Y75.404 F4097
G1 Y78.118 F4071
G1 Y80.816 F4047
G1 Y83.497 F4022
G1 Y86.162 F3997
G1 Y88.810 F3973
G1 Y91.442 F3948
G1 Y94.059 F3924
G1 Y96.659 F3900
;    t=25.0s  65 mm/s  406 Hz
M117 Y glide 65 mm/s
G1 Y99.243 F3876
G1 Y101.811 F3853
G1 Y104.364 F3829
G1 Y106.901 F3806
G1 Y109.422 F3782
G1 Y111.928 F3759
G1 Y114.419 F3736
G1 Y116.895 F3713
G1 Y119.355 F3690
G1 Y121.800 F3668
G1 Y124.231 F3645
G1 Y126.646 F3623
G1 Y129.047 F3601
G1 Y131.433 F3579
G1 Y133.804 F3557
G1 Y136.161 F3535
G1 Y138.503 F3514
G1 Y140.831 F3492
G1 Y143.145 F3471
G1 Y145.445 F3449
G1 Y147.730 F3428
G1 Y150.002 F3407
G1 Y152.259 F3386
G1 Y154.503 F3366
G1 Y156.733 F3345
;    t=26.0s  56 mm/s  348 Hz
M117 Y glide 56 mm/s
G1 Y158.950 F3325
G1 Y161.153 F3304
G1 Y163.342 F3284
G1 Y165.518 F3264
G1 Y167.681 F3244
G1 Y169.830 F3224
G1 Y171.966 F3204
G1 Y174.090 F3185
G1 Y176.200 F3165
G1 Y178.297 F3146
G1 Y180.382 F3127
G1 Y182.453 F3108
G1 Y184.512 F3089
G1 Y186.559 F3070
G1 Y188.593 F3051
G1 Y190.614 F3032
G1 Y192.623 F3014
G1 Y194.620 F2995
G1 Y196.604 F2977
G1 Y198.577 F2959
G1 Y200.537 F2940
G1 Y202.485 F2922
G1 Y204.422 F2905
G1 Y205.000 F2887
G1 Y203.079 F2881
G1 Y201.170 F2864
;    t=27.0s  48 mm/s  298 Hz
M117 Y glide 48 mm/s
G1 Y199.272 F2846
G1 Y197.386 F2829
G1 Y195.512 F2812
G1 Y193.649 F2794
G1 Y191.798 F2777
G1 Y189.957 F2760
G1 Y188.128 F2743
G1 Y186.311 F2727
G1 Y184.504 F2710
G1 Y182.709 F2693
G1 Y180.924 F2677
G1 Y179.150 F2660
G1 Y177.388 F2644
G1 Y175.636 F2628
G1 Y173.895 F2612
G1 Y172.164 F2596
G1 Y170.444 F2580
G1 Y168.735 F2564
G1 Y167.036 F2548
G1 Y165.347 F2533
G1 Y163.669 F2517
G1 Y162.001 F2502
G1 Y160.343 F2487
G1 Y158.695 F2471
G1 Y157.058 F2456
;    t=28.0s  41 mm/s  256 Hz
M117 Y glide 41 mm/s
G1 Y155.430 F2441
G1 Y153.813 F2426
G1 Y152.205 F2411
G1 Y150.607 F2397
G1 Y149.019 F2382
G1 Y147.441 F2367
G1 Y145.872 F2353
G1 Y144.313 F2339
G1 Y142.764 F2324
G1 Y141.224 F2310
G1 Y139.693 F2296
G1 Y138.172 F2282
G1 Y136.660 F2268
G1 Y135.157 F2254
G1 Y133.664 F2240
G1 Y132.180 F2226
G1 Y130.704 F2213
G1 Y129.238 F2199
G1 Y127.781 F2186
G1 Y126.333 F2172
G1 Y124.893 F2159
G1 Y123.463 F2146
G1 Y122.041 F2133
G1 Y120.628 F2120
G1 Y119.223 F2107
;    t=29.0s  35 mm/s  219 Hz
M117 Y glide 35 mm/s
G1 Y117.827 F2094
G1 Y116.440 F2081
G1 Y115.061 F2068
G1 Y113.691 F2056
G1 Y112.328 F2043
G1 Y110.975 F2031
G1 Y109.629 F2018
G1 Y108.292 F2006
G1 Y106.963 F1993
G1 Y105.642 F1981
G1 Y104.330 F1969
G1 Y103.025 F1957
G1 Y101.728 F1945
G1 Y100.439 F1933
G1 Y99.158 F1921
G1 Y97.885 F1910
G1 Y96.620 F1898
G1 Y95.362 F1886
G1 Y94.112 F1875
G1 Y92.870 F1863
G1 Y91.636 F1852
G1 Y90.409 F1841
G1 Y89.189 F1829
G1 Y87.977 F1818
G1 Y87.220 F1807
;    t=30.0s  30 mm/s  188 Hz
M117 Y glide 30 mm/s

; ====================================================================
; X sweep, pass 1: 18 speeds, full stroke 240.0 mm, accel 4000 mm/s^2
; ====================================================================
G1 X5.000 Y105.000 F6000  ; to X end

; -- X @ 30 mm/s | 1 x 240.0 mm | full-step 188 Hz --
M400
G4 P2000  ; silence between segments
M220 S30  ; screen reads 30% = 30 mm/s
M117 X 30 mm/s
M300 S1200 P60
G1 X35.000 F6000
M117 X 30 mm/s
G1 X65.000 F6000
M117 X 30 mm/s
G1 X95.000 F6000
M117 X 30 mm/s
G1 X125.000 F6000
M117 X 30 mm/s
G1 X155.000 F6000
M117 X 30 mm/s
G1 X185.000 F6000
M117 X 30 mm/s
G1 X215.000 F6000
M117 X 30 mm/s
G1 X245.000 F6000

; -- X @ 40 mm/s | 1 x 240.0 mm | full-step 250 Hz --
M400
G4 P2000  ; silence between segments
M220 S40  ; screen reads 40% = 40 mm/s
M117 X 40 mm/s
M300 S1200 P60
G1 X205.000 F6000
M117 X 40 mm/s
G1 X165.000 F6000
M117 X 40 mm/s
G1 X125.000 F6000
M117 X 40 mm/s
G1 X85.000 F6000
M117 X 40 mm/s
G1 X45.000 F6000
M117 X 40 mm/s
G1 X5.000 F6000

; -- X @ 50 mm/s | 2 x 240.0 mm | full-step 312 Hz --
M400
G4 P2000  ; silence between segments
M220 S50  ; screen reads 50% = 50 mm/s
M117 X 50 mm/s
M300 S1200 P60
G1 X53.000 F6000
M117 X 50 mm/s
G1 X101.000 F6000
M117 X 50 mm/s
G1 X149.000 F6000
M117 X 50 mm/s
G1 X197.000 F6000
M117 X 50 mm/s
G1 X245.000 F6000
G1 X197.000 F6000
M117 X 50 mm/s
G1 X149.000 F6000
M117 X 50 mm/s
G1 X101.000 F6000
M117 X 50 mm/s
G1 X53.000 F6000
M117 X 50 mm/s
G1 X5.000 F6000

; -- X @ 60 mm/s | 2 x 240.0 mm | full-step 375 Hz --
M400
G4 P2000  ; silence between segments
M220 S60  ; screen reads 60% = 60 mm/s
M117 X 60 mm/s
M300 S1200 P60
G1 X65.000 F6000
M117 X 60 mm/s
G1 X125.000 F6000
M117 X 60 mm/s
G1 X185.000 F6000
M117 X 60 mm/s
G1 X245.000 F6000
G1 X185.000 F6000
M117 X 60 mm/s
G1 X125.000 F6000
M117 X 60 mm/s
G1 X65.000 F6000
M117 X 60 mm/s
G1 X5.000 F6000

; -- X @ 70 mm/s | 2 x 240.0 mm | full-step 438 Hz --
M400
G4 P2000  ; silence between segments
M220 S70  ; screen reads 70% = 70 mm/s
M117 X 70 mm/s
M300 S1200 P60
G1 X65.000 F6000
M117 X 70 mm/s
G1 X125.000 F6000
M117 X 70 mm/s
G1 X185.000 F6000
M117 X 70 mm/s
G1 X245.000 F6000
G1 X185.000 F6000
M117 X 70 mm/s
G1 X125.000 F6000
M117 X 70 mm/s
G1 X65.000 F6000
M117 X 70 mm/s
G1 X5.000 F6000

; -- X @ 80 mm/s | 2 x 240.0 mm | full-step 500 Hz --
M400
G4 P2000  ; silence between segments
M220 S80  ; screen reads 80% = 80 mm/s
M117 X 80 mm/s
M300 S1200 P60
G1 X85.000 F6000
M117 X 80 mm/s
G1 X165.000 F6000
M117 X 80 mm/s
G1 X245.000 F6000
G1 X165.000 F6000
M117 X 80 mm/s
G1 X85.000 F6000
M117 X 80 mm/s
G1 X5.000 F6000

; -- X @ 90 mm/s | 2 x 240.0 mm | full-step 562 Hz --
M400
G4 P2000  ; silence between segments
M220 S90  ; screen reads 90% = 90 mm/s
M117 X 90 mm/s
M300 S1200 P60
G1 X85.000 F6000
M117 X 90 mm/s
G1 X165.000 F6000
M117 X 90 mm/s
G1 X245.000 F6000
G1 X165.000 F6000
M117 X 90 mm/s
G1 X85.000 F6000
M117 X 90 mm/s
G1 X5.000 F6000

; -- X @ 100 mm/s | 3 x 240.0 mm | full-step 625 Hz --
M400
G4 P2000  ; silence between segments
M220 S100  ; screen reads 100% = 100 mm/s
M117 X 100 mm/s
M300 S1200 P60
G1 X85.000 F6000
M117 X 100 mm/s
G1 X165.000 F6000
M117 X 100 mm/s
G1 X245.000 F6000
G1 X165.000 F6000
M117 X 100 mm/s
G1 X85.000 F6000
M117 X 100 mm/s
G1 X5.000 F6000
G1 X85.000 F6000
M117 X 100 mm/s
G1 X165.000 F6000
M117 X 100 mm/s
G1 X245.000 F6000

; -- X @ 120 mm/s | 3 x 240.0 mm | full-step 750 Hz --
M400
G4 P2000  ; silence between segments
M220 S120  ; screen reads 120% = 120 mm/s
M117 X 120 mm/s
M300 S1200 P60
G1 X125.000 F6000
M117 X 120 mm/s
G1 X5.000 F6000
G1 X125.000 F6000
M117 X 120 mm/s
G1 X245.000 F6000
G1 X125.000 F6000
M117 X 120 mm/s
G1 X5.000 F6000

; -- X @ 140 mm/s | 3 x 240.0 mm | full-step 875 Hz --
M400
G4 P2000  ; silence between segments
M220 S140  ; screen reads 140% = 140 mm/s
M117 X 140 mm/s
M300 S1200 P60
G1 X125.000 F6000
M117 X 140 mm/s
G1 X245.000 F6000
G1 X125.000 F6000
M117 X 140 mm/s
G1 X5.000 F6000
G1 X125.000 F6000
M117 X 140 mm/s
G1 X245.000 F6000

; -- X @ 160 mm/s | 4 x 240.0 mm | full-step 1000 Hz --
M400
G4 P2000  ; silence between segments
M220 S160  ; screen reads 160% = 160 mm/s
M117 X 160 mm/s
M300 S1200 P60
G1 X125.000 F6000
M117 X 160 mm/s
G1 X5.000 F6000
G1 X125.000 F6000
M117 X 160 mm/s
G1 X245.000 F6000
G1 X125.000 F6000
M117 X 160 mm/s
G1 X5.000 F6000
G1 X125.000 F6000
M117 X 160 mm/s
G1 X245.000 F6000

; -- X @ 180 mm/s | 4 x 240.0 mm | full-step 1125 Hz --
M400
G4 P2000  ; silence between segments
M220 S180  ; screen reads 180% = 180 mm/s
M117 X 180 mm/s
M300 S1200 P60
G1 X125.000 F6000
M117 X 180 mm/s
G1 X5.000 F6000
G1 X125.000 F6000
M117 X 180 mm/s
G1 X245.000 F6000
G1 X125.000 F6000
M117 X 180 mm/s
G1 X5.000 F6000
G1 X125.000 F6000
M117 X 180 mm/s
G1 X245.000 F6000

; -- X @ 200 mm/s | 5 x 240.0 mm | full-step 1250 Hz --
M400
G4 P2000  ; silence between segments
M220 S200  ; screen reads 200% = 200 mm/s
M117 X 200 mm/s
M300 S1200 P60
G1 X125.000 F6000
M117 X 200 mm/s
G1 X5.000 F6000
G1 X125.000 F6000
M117 X 200 mm/s
G1 X245.000 F6000
G1 X125.000 F6000
M117 X 200 mm/s
G1 X5.000 F6000
G1 X125.000 F6000
M117 X 200 mm/s
G1 X245.000 F6000
G1 X125.000 F6000
M117 X 200 mm/s
G1 X5.000 F6000

; -- X @ 220 mm/s | 5 x 240.0 mm | full-step 1375 Hz --
M400
G4 P2000  ; silence between segments
M220 S220  ; screen reads 220% = 220 mm/s
M117 X 220 mm/s
M300 S1200 P60
G1 X125.000 F6000
M117 X 220 mm/s
G1 X245.000 F6000
G1 X125.000 F6000
M117 X 220 mm/s
G1 X5.000 F6000
G1 X125.000 F6000
M117 X 220 mm/s
G1 X245.000 F6000
G1 X125.000 F6000
M117 X 220 mm/s
G1 X5.000 F6000
G1 X125.000 F6000
M117 X 220 mm/s
G1 X245.000 F6000

; -- X @ 240 mm/s | 6 x 240.0 mm | full-step 1500 Hz --
M400
G4 P2000  ; silence between segments
M220 S240  ; screen reads 240% = 240 mm/s
M117 X 240 mm/s
M300 S1200 P60
G1 X5.000 F6000
G1 X245.000 F6000
G1 X5.000 F6000
G1 X245.000 F6000
G1 X5.000 F6000
G1 X245.000 F6000

; -- X @ 260 mm/s | 6 x 240.0 mm | full-step 1625 Hz --
M400
G4 P2000  ; silence between segments
M220 S260  ; screen reads 260% = 260 mm/s
M117 X 260 mm/s
M300 S1200 P60
G1 X5.000 F6000
G1 X245.000 F6000
G1 X5.000 F6000
G1 X245.000 F6000
G1 X5.000 F6000
G1 X245.000 F6000

; -- X @ 280 mm/s | 7 x 240.0 mm | full-step 1750 Hz --
M400
G4 P2000  ; silence between segments
M220 S280  ; screen reads 280% = 280 mm/s
M117 X 280 mm/s
M300 S1200 P60
G1 X5.000 F6000
G1 X245.000 F6000
G1 X5.000 F6000
G1 X245.000 F6000
G1 X5.000 F6000
G1 X245.000 F6000
G1 X5.000 F6000

; -- X @ 300 mm/s | 7 x 240.0 mm | full-step 1875 Hz --
M400
G4 P2000  ; silence between segments
M220 S300  ; screen reads 300% = 300 mm/s
M117 X 300 mm/s
M300 S1200 P60
G1 X245.000 F6000
G1 X5.000 F6000
G1 X245.000 F6000
G1 X5.000 F6000
G1 X245.000 F6000
G1 X5.000 F6000
G1 X245.000 F6000

; ====================================================================
; Y sweep, pass 1: 18 speeds, full stroke 200.0 mm, accel 4000 mm/s^2
; ====================================================================
M220 S100  ; 100% while repositioning
G1 X125.000 Y5.000 F6000  ; to Y end

; -- Y @ 30 mm/s | 1 x 200.0 mm | full-step 188 Hz --
M400
G4 P2000  ; silence between segments
M220 S30  ; screen reads 30% = 30 mm/s
M117 Y 30 mm/s
M300 S1200 P60
G1 Y33.571 F6000
M117 Y 30 mm/s
G1 Y62.143 F6000
M117 Y 30 mm/s
G1 Y90.714 F6000
M117 Y 30 mm/s
G1 Y119.286 F6000
M117 Y 30 mm/s
G1 Y147.857 F6000
M117 Y 30 mm/s
G1 Y176.429 F6000
M117 Y 30 mm/s
G1 Y205.000 F6000

; -- Y @ 40 mm/s | 2 x 200.0 mm | full-step 250 Hz --
M400
G4 P2000  ; silence between segments
M220 S40  ; screen reads 40% = 40 mm/s
M117 Y 40 mm/s
M300 S1200 P60
G1 Y165.000 F6000
M117 Y 40 mm/s
G1 Y125.000 F6000
M117 Y 40 mm/s
G1 Y85.000 F6000
M117 Y 40 mm/s
G1 Y45.000 F6000
M117 Y 40 mm/s
G1 Y5.000 F6000
G1 Y45.000 F6000
M117 Y 40 mm/s
G1 Y85.000 F6000
M117 Y 40 mm/s
G1 Y125.000 F6000
M117 Y 40 mm/s
G1 Y165.000 F6000
M117 Y 40 mm/s
G1 Y205.000 F6000

; -- Y @ 50 mm/s | 2 x 200.0 mm | full-step 312 Hz --
M400
G4 P2000  ; silence between segments
M220 S50  ; screen reads 50% = 50 mm/s
M117 Y 50 mm/s
M300 S1200 P60
G1 Y155.000 F6000
M117 Y 50 mm/s
G1 Y105.000 F6000
M117 Y 50 mm/s
G1 Y55.000 F6000
M117 Y 50 mm/s
G1 Y5.000 F6000
G1 Y55.000 F6000
M117 Y 50 mm/s
G1 Y105.000 F6000
M117 Y 50 mm/s
G1 Y155.000 F6000
M117 Y 50 mm/s
G1 Y205.000 F6000

; -- Y @ 60 mm/s | 2 x 200.0 mm | full-step 375 Hz --
M400
G4 P2000  ; silence between segments
M220 S60  ; screen reads 60% = 60 mm/s
M117 Y 60 mm/s
M300 S1200 P60
G1 Y155.000 F6000
M117 Y 60 mm/s
G1 Y105.000 F6000
M117 Y 60 mm/s
G1 Y55.000 F6000
M117 Y 60 mm/s
G1 Y5.000 F6000
G1 Y55.000 F6000
M117 Y 60 mm/s
G1 Y105.000 F6000
M117 Y 60 mm/s
G1 Y155.000 F6000
M117 Y 60 mm/s
G1 Y205.000 F6000

; -- Y @ 70 mm/s | 2 x 200.0 mm | full-step 438 Hz --
M400
G4 P2000  ; silence between segments
M220 S70  ; screen reads 70% = 70 mm/s
M117 Y 70 mm/s
M300 S1200 P60
G1 Y138.333 F6000
M117 Y 70 mm/s
G1 Y71.667 F6000
M117 Y 70 mm/s
G1 Y5.000 F6000
G1 Y71.667 F6000
M117 Y 70 mm/s
G1 Y138.333 F6000
M117 Y 70 mm/s
G1 Y205.000 F6000

; -- Y @ 80 mm/s | 3 x 200.0 mm | full-step 500 Hz --
M400
G4 P2000  ; silence between segments
M220 S80  ; screen reads 80% = 80 mm/s
M117 Y 80 mm/s
M300 S1200 P60
G1 Y138.333 F6000
M117 Y 80 mm/s
G1 Y71.667 F6000
M117 Y 80 mm/s
G1 Y5.000 F6000
G1 Y71.667 F6000
M117 Y 80 mm/s
G1 Y138.333 F6000
M117 Y 80 mm/s
G1 Y205.000 F6000
G1 Y138.333 F6000
M117 Y 80 mm/s
G1 Y71.667 F6000
M117 Y 80 mm/s
G1 Y5.000 F6000

; -- Y @ 90 mm/s | 3 x 200.0 mm | full-step 562 Hz --
M400
G4 P2000  ; silence between segments
M220 S90  ; screen reads 90% = 90 mm/s
M117 Y 90 mm/s
M300 S1200 P60
G1 Y71.667 F6000
M117 Y 90 mm/s
G1 Y138.333 F6000
M117 Y 90 mm/s
G1 Y205.000 F6000
G1 Y138.333 F6000
M117 Y 90 mm/s
G1 Y71.667 F6000
M117 Y 90 mm/s
G1 Y5.000 F6000
G1 Y71.667 F6000
M117 Y 90 mm/s
G1 Y138.333 F6000
M117 Y 90 mm/s
G1 Y205.000 F6000

; -- Y @ 100 mm/s | 3 x 200.0 mm | full-step 625 Hz --
M400
G4 P2000  ; silence between segments
M220 S100  ; screen reads 100% = 100 mm/s
M117 Y 100 mm/s
M300 S1200 P60
G1 Y105.000 F6000
M117 Y 100 mm/s
G1 Y5.000 F6000
G1 Y105.000 F6000
M117 Y 100 mm/s
G1 Y205.000 F6000
G1 Y105.000 F6000
M117 Y 100 mm/s
G1 Y5.000 F6000

; -- Y @ 120 mm/s | 4 x 200.0 mm | full-step 750 Hz --
M400
G4 P2000  ; silence between segments
M220 S120  ; screen reads 120% = 120 mm/s
M117 Y 120 mm/s
M300 S1200 P60
G1 Y105.000 F6000
M117 Y 120 mm/s
G1 Y205.000 F6000
G1 Y105.000 F6000
M117 Y 120 mm/s
G1 Y5.000 F6000
G1 Y105.000 F6000
M117 Y 120 mm/s
G1 Y205.000 F6000
G1 Y105.000 F6000
M117 Y 120 mm/s
G1 Y5.000 F6000

; -- Y @ 140 mm/s | 4 x 200.0 mm | full-step 875 Hz --
M400
G4 P2000  ; silence between segments
M220 S140  ; screen reads 140% = 140 mm/s
M117 Y 140 mm/s
M300 S1200 P60
G1 Y105.000 F6000
M117 Y 140 mm/s
G1 Y205.000 F6000
G1 Y105.000 F6000
M117 Y 140 mm/s
G1 Y5.000 F6000
G1 Y105.000 F6000
M117 Y 140 mm/s
G1 Y205.000 F6000
G1 Y105.000 F6000
M117 Y 140 mm/s
G1 Y5.000 F6000

; -- Y @ 160 mm/s | 5 x 200.0 mm | full-step 1000 Hz --
M400
G4 P2000  ; silence between segments
M220 S160  ; screen reads 160% = 160 mm/s
M117 Y 160 mm/s
M300 S1200 P60
G1 Y105.000 F6000
M117 Y 160 mm/s
G1 Y205.000 F6000
G1 Y105.000 F6000
M117 Y 160 mm/s
G1 Y5.000 F6000
G1 Y105.000 F6000
M117 Y 160 mm/s
G1 Y205.000 F6000
G1 Y105.000 F6000
M117 Y 160 mm/s
G1 Y5.000 F6000
G1 Y105.000 F6000
M117 Y 160 mm/s
G1 Y205.000 F6000

; -- Y @ 180 mm/s | 5 x 200.0 mm | full-step 1125 Hz --
M400
G4 P2000  ; silence between segments
M220 S180  ; screen reads 180% = 180 mm/s
M117 Y 180 mm/s
M300 S1200 P60
G1 Y105.000 F6000
M117 Y 180 mm/s
G1 Y5.000 F6000
G1 Y105.000 F6000
M117 Y 180 mm/s
G1 Y205.000 F6000
G1 Y105.000 F6000
M117 Y 180 mm/s
G1 Y5.000 F6000
G1 Y105.000 F6000
M117 Y 180 mm/s
G1 Y205.000 F6000
G1 Y105.000 F6000
M117 Y 180 mm/s
G1 Y5.000 F6000

; -- Y @ 200 mm/s | 6 x 200.0 mm | full-step 1250 Hz --
M400
G4 P2000  ; silence between segments
M220 S200  ; screen reads 200% = 200 mm/s
M117 Y 200 mm/s
M300 S1200 P60
G1 Y205.000 F6000
G1 Y5.000 F6000
G1 Y205.000 F6000
G1 Y5.000 F6000
G1 Y205.000 F6000
G1 Y5.000 F6000

; -- Y @ 220 mm/s | 6 x 200.0 mm | full-step 1375 Hz --
M400
G4 P2000  ; silence between segments
M220 S220  ; screen reads 220% = 220 mm/s
M117 Y 220 mm/s
M300 S1200 P60
G1 Y205.000 F6000
G1 Y5.000 F6000
G1 Y205.000 F6000
G1 Y5.000 F6000
G1 Y205.000 F6000
G1 Y5.000 F6000

; -- Y @ 240 mm/s | 7 x 200.0 mm | full-step 1500 Hz --
M400
G4 P2000  ; silence between segments
M220 S240  ; screen reads 240% = 240 mm/s
M117 Y 240 mm/s
M300 S1200 P60
G1 Y205.000 F6000
G1 Y5.000 F6000
G1 Y205.000 F6000
G1 Y5.000 F6000
G1 Y205.000 F6000
G1 Y5.000 F6000
G1 Y205.000 F6000

; -- Y @ 260 mm/s | 8 x 200.0 mm | full-step 1625 Hz --
M400
G4 P2000  ; silence between segments
M220 S260  ; screen reads 260% = 260 mm/s
M117 Y 260 mm/s
M300 S1200 P60
G1 Y5.000 F6000
G1 Y205.000 F6000
G1 Y5.000 F6000
G1 Y205.000 F6000
G1 Y5.000 F6000
G1 Y205.000 F6000
G1 Y5.000 F6000
G1 Y205.000 F6000

; -- Y @ 280 mm/s | 8 x 200.0 mm | full-step 1750 Hz --
M400
G4 P2000  ; silence between segments
M220 S280  ; screen reads 280% = 280 mm/s
M117 Y 280 mm/s
M300 S1200 P60
G1 Y5.000 F6000
G1 Y205.000 F6000
G1 Y5.000 F6000
G1 Y205.000 F6000
G1 Y5.000 F6000
G1 Y205.000 F6000
G1 Y5.000 F6000
G1 Y205.000 F6000

; -- Y @ 300 mm/s | 9 x 200.0 mm | full-step 1875 Hz --
M400
G4 P2000  ; silence between segments
M220 S300  ; screen reads 300% = 300 mm/s
M117 Y 300 mm/s
M300 S1200 P60
G1 Y5.000 F6000
G1 Y205.000 F6000
G1 Y5.000 F6000
G1 Y205.000 F6000
G1 Y5.000 F6000
G1 Y205.000 F6000
G1 Y5.000 F6000
G1 Y205.000 F6000
G1 Y5.000 F6000

; --- BASELINE (end): motors energised, nothing moving ---
M400
G4 P2000  ; silence
M117 baseline end
M300 S1200 P60
G4 P10000  ; hold still

; --- done: put the motion settings back ---
; leaving these raised would apply to the next G28, and sensorless homing
; detects a stall from back-EMF - a hard acceleration ramp can mimic one
M220 S100
M201 X1250 Y1250
M204 P1250 T1250 R1250
M203 X400 Y400
M107
G1 Y105.000 Z100.000 F1800  ; lift out of the way
M84
M300 S1200 P120
G4 P150
M300 S1200 P120
G4 P150
M300 S1200 P120
G4 P150
